IRIDIUM 166             
1 43570U 18061B   25356.22252890  .00000326  00000+0  10928-3 0  9999
2 43570  86.3983 130.7437 0002128  91.4169 268.7271 14.34218345388036
IRIDIUM 158             
1 43571U 18061C   25355.84197423  .00000292  00000+0  97193-4 0  9999
2 43571  86.3982 130.9128 0001945 101.0960 259.0454 14.34218373387944
IRIDIUM 165             
1 43572U 18061D   25355.79757444  .00000250  00000+0  82256-4 0  9997
2 43572  86.3982 130.9741 0002070  91.6286 268.5147 14.34219171387964
IRIDIUM 155             
1 43573U 18061E   25356.10836243  .00000085  00000+0  23312-4 0  9993
2 43573  86.3980 130.7221 0002163  99.4250 260.7190 14.34218145387977
IRIDIUM 154             
1 43574U 18061F   25356.29863962  .00000111  00000+0  32417-4 0  9998
2 43574  86.3984 130.7677 0002054  93.4950 266.6481 14.34218406388055
IRIDIUM 163             
1 43575U 18061G   25356.20984233  .00000262  00000+0  86363-4 0  9991
2 43575  86.3982 130.7257 0001895  97.5048 262.6363 14.34219217388015
IRIDIUM 156             
1 43576U 18061H   25356.25424246  .00000291  00000+0  96723-4 0  9993
2 43576  86.3981 130.7141 0002219  99.0964 261.0483 14.34218773388014
IRIDIUM 164             
1 43577U 18061J   25356.23522470  .00000240  00000+0  78656-4 0  9999
2 43577  86.3983 130.7596 0002073  88.9745 271.1689 14.34219073388051
